[{"OBJECT_NAME":"STARLINK-4323","OBJECT_ID":"2022-077AC","EPOCH":"2026-03-09T22:26:55.446144","MEAN_MOTION":15.01248487,"ECCENTRICITY":0.00036931,"INCLINATION":97.6018,"RA_OF_ASC_NODE":250.447,"ARG_OF_PERICENTER":169.7375,"MEAN_ANOMALY":190.3925,"EPHEMERIS_TYPE":0,"CLASSIFICATION_TYPE":"U","NORAD_CAT_ID":53069,"ELEMENT_SET_NO":999,"REV_AT_EPOCH":20095,"BSTAR":8.992699e-5,"MEAN_MOTION_DOT":1.097e-5,"MEAN_MOTION_DDOT":0},{"OBJECT_NAME":"HAWK-9A","OBJECT_ID":"2024-066E","EPOCH":"2026-03-09T10:20:39.002208","MEAN_MOTION":14.98777479,"ECCENTRICITY":0.00036271,"INCLINATION":45.6088,"RA_OF_ASC_NODE":72.7153,"ARG_OF_PERICENTER":244.6286,"MEAN_ANOMALY":115.4219,"EPHEMERIS_TYPE":0,"CLASSIFICATION_TYPE":"U","NORAD_CAT_ID":59446,"ELEMENT_SET_NO":999,"REV_AT_EPOCH":10486,"BSTAR":0.00023458946,"MEAN_MOTION_DOT":2.638e-5,"MEAN_MOTION_DDOT":0}]
